STARLINK-36749          
1 67734U 26026P   26063.41668981 -.01929157  00000+0 -22533-1 0  9994
2 67734  97.2844 117.8278 0001663  81.1132 158.4655 15.64705694  4464
STARLINK-36691          
1 67735U 26026Q   26063.41668981 -.01889110  00000+0 -16812-1 0  9992
2 67735  97.2839 117.8667 0001396  72.9663 262.2447 15.71802754  4603
STARLINK-36317          
1 67736U 26026R   26063.41668981 -.01882439  00000+0 -16928-1 0  9998
2 67736  97.2837 117.8615 0001398  71.2731 252.4789 15.71543857  4465
STARLINK-36330          
1 67737U 26026S   26063.41668981 -.01874826  00000+0 -16604-1 0  9991
2 67737  97.2839 117.8691 0001328  72.7518 269.4507 15.71890815  4469
STARLINK-36327          
1 67738U 26026T   26063.41668981 -.01883594  00000+0 -16482-1 0  9998
2 67738  97.2839 117.8736 0001371  68.1167 284.2508 15.72189384  4466
STARLINK-36329          
1 67739U 26026U   26063.41668981 -.01891357  00000+0 -15836-1 0  9997
2 67739  97.2842 117.8926 0001587  61.5417 346.1088 15.73229604  4468
STARLINK-36737          
1 67740U 26026V   26063.41668981 -.01893063  00000+0 -16464-1 0  9993
2 67740  97.2838 117.8764 0001404  69.2535 292.9922 15.72350139  4461
STARLINK-36740          
1 67741U 26026W   26063.41668981 -.01908181  00000+0 -19424-1 0  9991
2 67741  97.2840 117.8741 0001369  69.2819 283.3715 15.68074470  4465
STARLINK-36693          
1 67742U 26026X   26063.41668981 -.01897847  00000+0 -18792-1 0  9995
2 67742  97.2838 117.8682 0001383  84.8895 252.5239 15.68730666  4601
STARLINK-36717          
1 67743U 26026Y   26063.41668981 -.01893818  00000+0 -17543-1 0  9993
2 67743  97.2839 117.8814 0001444  69.0519 303.8353 15.70864636  4601
STARLINK-36692          
1 67744U 26026Z   26063.41668981 -.01868247  00000+0 -18208-1 0  9991
2 67744  97.2837 117.8742 0001411  57.8559 296.5058 15.69602871  4466
2026-027A               
1 67746U 26027A   26063.42878368  .00014381  00000+0  71732-3 0  9999
2 67746  97.4900 192.4982 0009825 213.0584 147.0037 15.17590219  3064
2026-027B               
1 67747U 26027B   26063.49337353  .00014119  00000+0  70228-3 0  9999
2 67747  97.4896 192.5636 0009936 215.3030 144.7547 15.17691864  3079
2026-027C               
1 67748U 26027C   26063.49202969  .00009619  00000+0  47922-3 0  9998
2 67748  97.4906 192.5685 0010305 217.7891 142.2620 15.17732572  3076
2026-027D               
1 67749U 26027D   26063.42335088  .00016457  00000+0  80981-3 0  9991
2 67749  97.4902 192.5058 0009979 223.1786 136.8666 15.18032252  3018
2026-027E               
1 67750U 26027E   26063.48932497  .00014191  00000+0  69979-3 0  9993
2 67750  97.4914 192.5742 0009165 223.8676 136.1831 15.17999022  3074
2026-027F               
1 67751U 26027F   26063.42155592  .00023081  00000+0  11257-2 0  9994
2 67751  97.4914 192.5119 0010332 224.7618 135.2783 15.18267453  3069
