[{"OBJECT_NAME":"STARLINK-36749","OBJECT_ID":"2026-026P","EPOCH":"2026-03-04T10:00:01.999584","MEAN_MOTION":15.64705694,"ECCENTRICITY":0.0001663,"INCLINATION":97.2844,"RA_OF_ASC_NODE":117.8278,"ARG_OF_PERICENTER":81.1132,"MEAN_ANOMALY":158.4655,"EPHEMERIS_TYPE":0,"CLASSIFICATION_TYPE":"U","NORAD_CAT_ID":67734,"ELEMENT_SET_NO":999,"REV_AT_EPOCH":446,"BSTAR":-0.022533,"MEAN_MOTION_DOT":-0.01929157,"MEAN_MOTION_DDOT":0},{"OBJECT_NAME":"STARLINK-36691","OBJECT_ID":"2026-026Q","EPOCH":"2026-03-04T10:00:01.999584","MEAN_MOTION":15.71802754,"ECCENTRICITY":0.0001396,"INCLINATION":97.2839,"RA_OF_ASC_NODE":117.8667,"ARG_OF_PERICENTER":72.9663,"MEAN_ANOMALY":262.2447,"EPHEMERIS_TYPE":0,"CLASSIFICATION_TYPE":"U","NORAD_CAT_ID":67735,"ELEMENT_SET_NO":999,"REV_AT_EPOCH":460,"BSTAR":-0.016812,"MEAN_MOTION_DOT":-0.0188911,"MEAN_MOTION_DDOT":0},{"OBJECT_NAME":"STARLINK-36317","OBJECT_ID":"2026-026R","EPOCH":"2026-03-04T10:00:01.999584","MEAN_MOTION":15.71543857,"ECCENTRICITY":0.0001398,"INCLINATION":97.2837,"RA_OF_ASC_NODE":117.8615,"ARG_OF_PERICENTER":71.2731,"MEAN_ANOMALY":252.4789,"EPHEMERIS_TYPE":0,"CLASSIFICATION_TYPE":"U","NORAD_CAT_ID":67736,"ELEMENT_SET_NO":999,"REV_AT_EPOCH":446,"BSTAR":-0.016928,"MEAN_MOTION_DOT":-0.01882439,"MEAN_MOTION_DDOT":0},{"OBJECT_NAME":"STARLINK-36330","OBJECT_ID":"2026-026S","EPOCH":"2026-03-04T10:00:01.999584","MEAN_MOTION":15.71890815,"ECCENTRICITY":0.0001328,"INCLINATION":97.2839,"RA_OF_ASC_NODE":117.8691,"ARG_OF_PERICENTER":72.7518,"MEAN_ANOMALY":269.4507,"EPHEMERIS_TYPE":0,"CLASSIFICATION_TYPE":"U","NORAD_CAT_ID":67737,"ELEMENT_SET_NO":999,"REV_AT_EPOCH":446,"BSTAR":-0.016604,"MEAN_MOTION_DOT":-0.01874826,"MEAN_MOTION_DDOT":0},{"OBJECT_NAME":"STARLINK-36327","OBJECT_ID":"2026-026T","EPOCH":"2026-03-04T10:00:01.999584","MEAN_MOTION":15.72189384,"ECCENTRICITY":0.0001371,"INCLINATION":97.2839,"RA_OF_ASC_NODE":117.8736,"ARG_OF_PERICENTER":68.1167,"MEAN_ANOMALY":284.2508,"EPHEMERIS_TYPE":0,"CLASSIFICATION_TYPE":"U","NORAD_CAT_ID":67738,"ELEMENT_SET_NO":999,"REV_AT_EPOCH":446,"BSTAR":-0.016482,"MEAN_MOTION_DOT":-0.01883594,"MEAN_MOTION_DDOT":0},{"OBJECT_NAME":"STARLINK-36329","OBJECT_ID":"2026-026U","EPOCH":"2026-03-04T10:00:01.999584","MEAN_MOTION":15.73229604,"ECCENTRICITY":0.0001587,"INCLINATION":97.2842,"RA_OF_ASC_NODE":117.8926,"ARG_OF_PERICENTER":61.5417,"MEAN_ANOMALY":346.1088,"EPHEMERIS_TYPE":0,"CLASSIFICATION_TYPE":"U","NORAD_CAT_ID":67739,"ELEMENT_SET_NO":999,"REV_AT_EPOCH":446,"BSTAR":-0.015836,"MEAN_MOTION_DOT":-0.01891357,"MEAN_MOTION_DDOT":0},{"OBJECT_NAME":"STARLINK-36737","OBJECT_ID":"2026-026V","EPOCH":"2026-03-04T10:00:01.999584","MEAN_MOTION":15.72350139,"ECCENTRICITY":0.0001404,"INCLINATION":97.2838,"RA_OF_ASC_NODE":117.8764,"ARG_OF_PERICENTER":69.2535,"MEAN_ANOMALY":292.9922,"EPHEMERIS_TYPE":0,"CLASSIFICATION_TYPE":"U","NORAD_CAT_ID":67740,"ELEMENT_SET_NO":999,"REV_AT_EPOCH":446,"BSTAR":-0.016464,"MEAN_MOTION_DOT":-0.01893063,"MEAN_MOTION_DDOT":0},{"OBJECT_NAME":"STARLINK-36740","OBJECT_ID":"2026-026W","EPOCH":"2026-03-04T10:00:01.999584","MEAN_MOTION":15.6807447,"ECCENTRICITY":0.0001369,"INCLINATION":97.284,"RA_OF_ASC_NODE":117.8741,"ARG_OF_PERICENTER":69.2819,"MEAN_ANOMALY":283.3715,"EPHEMERIS_TYPE":0,"CLASSIFICATION_TYPE":"U","NORAD_CAT_ID":67741,"ELEMENT_SET_NO":999,"REV_AT_EPOCH":446,"BSTAR":-0.019424,"MEAN_MOTION_DOT":-0.01908181,"MEAN_MOTION_DDOT":0},{"OBJECT_NAME":"STARLINK-36693","OBJECT_ID":"2026-026X","EPOCH":"2026-03-04T10:00:01.999584","MEAN_MOTION":15.68730666,"ECCENTRICITY":0.0001383,"INCLINATION":97.2838,"RA_OF_ASC_NODE":117.8682,"ARG_OF_PERICENTER":84.8895,"MEAN_ANOMALY":252.5239,"EPHEMERIS_TYPE":0,"CLASSIFICATION_TYPE":"U","NORAD_CAT_ID":67742,"ELEMENT_SET_NO":999,"REV_AT_EPOCH":460,"BSTAR":-0.018792,"MEAN_MOTION_DOT":-0.01897847,"MEAN_MOTION_DDOT":0},{"OBJECT_NAME":"STARLINK-36717","OBJECT_ID":"2026-026Y","EPOCH":"2026-03-04T10:00:01.999584","MEAN_MOTION":15.70864636,"ECCENTRICITY":0.0001444,"INCLINATION":97.2839,"RA_OF_ASC_NODE":117.8814,"ARG_OF_PERICENTER":69.0519,"MEAN_ANOMALY":303.8353,"EPHEMERIS_TYPE":0,"CLASSIFICATION_TYPE":"U","NORAD_CAT_ID":67743,"ELEMENT_SET_NO":999,"REV_AT_EPOCH":460,"BSTAR":-0.017543,"MEAN_MOTION_DOT":-0.01893818,"MEAN_MOTION_DDOT":0},{"OBJECT_NAME":"STARLINK-36692","OBJECT_ID":"2026-026Z","EPOCH":"2026-03-04T10:00:01.999584","MEAN_MOTION":15.69602871,"ECCENTRICITY":0.0001411,"INCLINATION":97.2837,"RA_OF_ASC_NODE":117.8742,"ARG_OF_PERICENTER":57.8559,"MEAN_ANOMALY":296.5058,"EPHEMERIS_TYPE":0,"CLASSIFICATION_TYPE":"U","NORAD_CAT_ID":67744,"ELEMENT_SET_NO":999,"REV_AT_EPOCH":446,"BSTAR":-0.018208,"MEAN_MOTION_DOT":-0.01868247,"MEAN_MOTION_DDOT":0},{"OBJECT_NAME":"2026-027A","OBJECT_ID":"2026-027A","EPOCH":"2026-03-04T10:17:26.909952","MEAN_MOTION":15.17590219,"ECCENTRICITY":0.0009825,"INCLINATION":97.49,"RA_OF_ASC_NODE":192.4982,"ARG_OF_PERICENTER":213.0584,"MEAN_ANOMALY":147.0037,"EPHEMERIS_TYPE":0,"CLASSIFICATION_TYPE":"U","NORAD_CAT_ID":67746,"ELEMENT_SET_NO":999,"REV_AT_EPOCH":306,"BSTAR":0.00071732,"MEAN_MOTION_DOT":0.00014381,"MEAN_MOTION_DDOT":0},{"OBJECT_NAME":"2026-027B","OBJECT_ID":"2026-027B","EPOCH":"2026-03-04T11:50:27.472992","MEAN_MOTION":15.17691864,"ECCENTRICITY":0.0009936,"INCLINATION":97.4896,"RA_OF_ASC_NODE":192.5636,"ARG_OF_PERICENTER":215.303,"MEAN_ANOMALY":144.7547,"EPHEMERIS_TYPE":0,"CLASSIFICATION_TYPE":"U","NORAD_CAT_ID":67747,"ELEMENT_SET_NO":999,"REV_AT_EPOCH":307,"BSTAR":0.00070228,"MEAN_MOTION_DOT":0.00014119,"MEAN_MOTION_DDOT":0},{"OBJECT_NAME":"2026-027C","OBJECT_ID":"2026-027C","EPOCH":"2026-03-04T11:48:31.365216","MEAN_MOTION":15.17732572,"ECCENTRICITY":0.0010305,"INCLINATION":97.4906,"RA_OF_ASC_NODE":192.5685,"ARG_OF_PERICENTER":217.7891,"MEAN_ANOMALY":142.262,"EPHEMERIS_TYPE":0,"CLASSIFICATION_TYPE":"U","NORAD_CAT_ID":67748,"ELEMENT_SET_NO":999,"REV_AT_EPOCH":307,"BSTAR":0.00047922,"MEAN_MOTION_DOT":9.619e-5,"MEAN_MOTION_DDOT":0},{"OBJECT_NAME":"2026-027D","OBJECT_ID":"2026-027D","EPOCH":"2026-03-04T10:09:37.516032","MEAN_MOTION":15.18032252,"ECCENTRICITY":0.0009979,"INCLINATION":97.4902,"RA_OF_ASC_NODE":192.5058,"ARG_OF_PERICENTER":223.1786,"MEAN_ANOMALY":136.8666,"EPHEMERIS_TYPE":0,"CLASSIFICATION_TYPE":"U","NORAD_CAT_ID":67749,"ELEMENT_SET_NO":999,"REV_AT_EPOCH":301,"BSTAR":0.00080981,"MEAN_MOTION_DOT":0.00016457,"MEAN_MOTION_DDOT":0},{"OBJECT_NAME":"2026-027E","OBJECT_ID":"2026-027E","EPOCH":"2026-03-04T11:44:37.677408","MEAN_MOTION":15.17999022,"ECCENTRICITY":0.0009165,"INCLINATION":97.4914,"RA_OF_ASC_NODE":192.5742,"ARG_OF_PERICENTER":223.8676,"MEAN_ANOMALY":136.1831,"EPHEMERIS_TYPE":0,"CLASSIFICATION_TYPE":"U","NORAD_CAT_ID":67750,"ELEMENT_SET_NO":999,"REV_AT_EPOCH":307,"BSTAR":0.00069979,"MEAN_MOTION_DOT":0.00014191,"MEAN_MOTION_DDOT":0},{"OBJECT_NAME":"2026-027F","OBJECT_ID":"2026-027F","EPOCH":"2026-03-04T10:07:02.431488","MEAN_MOTION":15.18267453,"ECCENTRICITY":0.0010332,"INCLINATION":97.4914,"RA_OF_ASC_NODE":192.5119,"ARG_OF_PERICENTER":224.7618,"MEAN_ANOMALY":135.2783,"EPHEMERIS_TYPE":0,"CLASSIFICATION_TYPE":"U","NORAD_CAT_ID":67751,"ELEMENT_SET_NO":999,"REV_AT_EPOCH":306,"BSTAR":0.0011257,"MEAN_MOTION_DOT":0.00023081,"MEAN_MOTION_DDOT":0}]
